CCSDS_OMM_VERS = 2.0
CREATION_DATE  = 
ORIGINATOR     = 

OBJECT_NAME    = SL-3 R/B
OBJECT_ID      = 1982-079B
CENTER_NAME    = EARTH
REF_FRAME      = TEME
TIME_SYSTEM    = UTC
MEAN_ELEMENT_THEORY = SGP/SGP4

EPOCH          = 2026-01-26T06:22:18.697152
MEAN_MOTION    = 15.24192404
ECCENTRICITY   = .00245293
INCLINATION    = 81.1448
RA_OF_ASC_NODE = 243.1539
ARG_OF_PERICENTER = 311.6464
MEAN_ANOMALY   = 48.2667

EPHEMERIS_TYPE = 0
CLASSIFICATION_TYPE = U
NORAD_CAT_ID   = 13403
ELEMENT_SET_NO = 999
REV_AT_EPOCH   = 37123
BSTAR          = .30872978E-3
MEAN_MOTION_DOT = .7609E-4
MEAN_MOTION_DDOT = 0

CCSDS_OMM_VERS = 2.0
CREATION_DATE  = 
ORIGINATOR     = 

OBJECT_NAME    = SL-14 R/B
OBJECT_ID      = 1982-092B
CENTER_NAME    = EARTH
REF_FRAME      = TEME
TIME_SYSTEM    = UTC
MEAN_ELEMENT_THEORY = SGP/SGP4

EPOCH          = 2026-01-25T22:09:31.634784
MEAN_MOTION    = 14.86612743
ECCENTRICITY   = .00218625
INCLINATION    = 82.5684
RA_OF_ASC_NODE = 181.3880
ARG_OF_PERICENTER = 83.6561
MEAN_ANOMALY   = 84.2639

EPHEMERIS_TYPE = 0
CLASSIFICATION_TYPE = U
NORAD_CAT_ID   = 13553
ELEMENT_SET_NO = 999
REV_AT_EPOCH   = 32257
BSTAR          = .11208926E-3
MEAN_MOTION_DOT = .1023E-4
MEAN_MOTION_DDOT = 0

CCSDS_OMM_VERS = 2.0
CREATION_DATE  = 
ORIGINATOR     = 

OBJECT_NAME    = SL-3 R/B
OBJECT_ID      = 1983-010B
CENTER_NAME    = EARTH
REF_FRAME      = TEME
TIME_SYSTEM    = UTC
MEAN_ELEMENT_THEORY = SGP/SGP4

EPOCH          = 2026-01-26T03:52:04.814112
MEAN_MOTION    = 15.44861362
ECCENTRICITY   = .00168228
INCLINATION    = 81.1023
RA_OF_ASC_NODE = 54.3352
ARG_OF_PERICENTER = 190.0261
MEAN_ANOMALY   = 170.0650

EPHEMERIS_TYPE = 0
CLASSIFICATION_TYPE = U
NORAD_CAT_ID   = 13819
ELEMENT_SET_NO = 999
REV_AT_EPOCH   = 35137
BSTAR          = .41232975E-3
MEAN_MOTION_DOT = .19498E-3
MEAN_MOTION_DDOT = 0

CCSDS_OMM_VERS = 2.0
CREATION_DATE  = 
ORIGINATOR     = 

OBJECT_NAME    = SL-3 R/B
OBJECT_ID      = 1983-075B
CENTER_NAME    = EARTH
REF_FRAME      = TEME
TIME_SYSTEM    = UTC
MEAN_ELEMENT_THEORY = SGP/SGP4

EPOCH          = 2026-01-26T06:18:43.174944
MEAN_MOTION    = 15.37261686
ECCENTRICITY   = .00231201
INCLINATION    = 97.6128
RA_OF_ASC_NODE = 29.2810
ARG_OF_PERICENTER = 26.4783
MEAN_ANOMALY   = 333.7637

EPHEMERIS_TYPE = 0
CLASSIFICATION_TYPE = U
NORAD_CAT_ID   = 14208
ELEMENT_SET_NO = 999
REV_AT_EPOCH   = 32363
BSTAR          = .43442502E-3
MEAN_MOTION_DOT = .15925E-3
MEAN_MOTION_DDOT = 0

CCSDS_OMM_VERS = 2.0
CREATION_DATE  = 
ORIGINATOR     = 

OBJECT_NAME    = COSMOS 1536
OBJECT_ID      = 1984-013A
CENTER_NAME    = EARTH
REF_FRAME      = TEME
TIME_SYSTEM    = UTC
MEAN_ELEMENT_THEORY = SGP/SGP4

EPOCH          = 2026-01-26T06:59:24.680832
MEAN_MOTION    = 15.23210384
ECCENTRICITY   = .00156822
INCLINATION    = 82.5467
RA_OF_ASC_NODE = 149.9627
ARG_OF_PERICENTER = 73.9302
MEAN_ANOMALY   = 286.3660

EPHEMERIS_TYPE = 0
CLASSIFICATION_TYPE = U
NORAD_CAT_ID   = 14699
ELEMENT_SET_NO = 999
REV_AT_EPOCH   = 26616
BSTAR          = .42031963E-3
MEAN_MOTION_DOT = .10011E-3
MEAN_MOTION_DDOT = 0

CCSDS_OMM_VERS = 2.0
CREATION_DATE  = 
ORIGINATOR     = 

OBJECT_NAME    = SL-14 R/B
OBJECT_ID      = 1984-027B
CENTER_NAME    = EARTH
REF_FRAME      = TEME
TIME_SYSTEM    = UTC
MEAN_ELEMENT_THEORY = SGP/SGP4

EPOCH          = 2026-01-26T04:51:45.001152
MEAN_MOTION    = 14.85931852
ECCENTRICITY   = .00194079
INCLINATION    = 82.5422
RA_OF_ASC_NODE = 284.8657
ARG_OF_PERICENTER = 112.1434
MEAN_ANOMALY   = 248.1845

EPHEMERIS_TYPE = 0
CLASSIFICATION_TYPE = U
NORAD_CAT_ID   = 14820
ELEMENT_SET_NO = 999
REV_AT_EPOCH   = 24132
BSTAR          = .85260633E-4
MEAN_MOTION_DOT = .77E-5
MEAN_MOTION_DDOT = 0

CCSDS_OMM_VERS = 2.0
CREATION_DATE  = 
ORIGINATOR     = 

OBJECT_NAME    = SL-8 R/B
OBJECT_ID      = 1985-006B
CENTER_NAME    = EARTH
REF_FRAME      = TEME
TIME_SYSTEM    = UTC
MEAN_ELEMENT_THEORY = SGP/SGP4

EPOCH          = 2026-01-26T07:02:01.039776
MEAN_MOTION    = 14.37758165
ECCENTRICITY   = .00197571
INCLINATION    = 74.0474
RA_OF_ASC_NODE = 339.1579
ARG_OF_PERICENTER = 264.4561
MEAN_ANOMALY   = 205.2635

EPHEMERIS_TYPE = 0
CLASSIFICATION_TYPE = U
NORAD_CAT_ID   = 15483
ELEMENT_SET_NO = 999
REV_AT_EPOCH   = 14793
BSTAR          = .18195879E-3
MEAN_MOTION_DOT = .522E-5
MEAN_MOTION_DDOT = 0

CCSDS_OMM_VERS = 2.0
CREATION_DATE  = 
ORIGINATOR     = 

OBJECT_NAME    = SL-12 R/B(2)
OBJECT_ID      = 1985-042D
CENTER_NAME    = EARTH
REF_FRAME      = TEME
TIME_SYSTEM    = UTC
MEAN_ELEMENT_THEORY = SGP/SGP4

EPOCH          = 2026-01-25T16:52:13.819008
MEAN_MOTION    = 14.21967794
ECCENTRICITY   = .00358128
INCLINATION    = 71.1072
RA_OF_ASC_NODE = 178.5432
ARG_OF_PERICENTER = 196.0833
MEAN_ANOMALY   = 174.9104

EPHEMERIS_TYPE = 0
CLASSIFICATION_TYPE = U
NORAD_CAT_ID   = 15772
ELEMENT_SET_NO = 999
REV_AT_EPOCH   = 10828
BSTAR          = .1068246E-3
MEAN_MOTION_DOT = .19E-5
MEAN_MOTION_DDOT = 0

CCSDS_OMM_VERS = 2.0
CREATION_DATE  = 
ORIGINATOR     = 

OBJECT_NAME    = SL-14 R/B
OBJECT_ID      = 1985-069B
CENTER_NAME    = EARTH
REF_FRAME      = TEME
TIME_SYSTEM    = UTC
MEAN_ELEMENT_THEORY = SGP/SGP4

EPOCH          = 2026-01-26T04:48:22.645440
MEAN_MOTION    = 14.86381129
ECCENTRICITY   = .00181374
INCLINATION    = 82.5244
RA_OF_ASC_NODE = 64.8983
ARG_OF_PERICENTER = 337.7579
MEAN_ANOMALY   = 22.2849

EPHEMERIS_TYPE = 0
CLASSIFICATION_TYPE = U
NORAD_CAT_ID   = 15945
ELEMENT_SET_NO = 999
REV_AT_EPOCH   = 16652
BSTAR          = .81812181E-4
MEAN_MOTION_DOT = .747E-5
MEAN_MOTION_DDOT = 0

CCSDS_OMM_VERS = 2.0
CREATION_DATE  = 
ORIGINATOR     = 

OBJECT_NAME    = SL-16 R/B
OBJECT_ID      = 1985-097B
CENTER_NAME    = EARTH
REF_FRAME      = TEME
TIME_SYSTEM    = UTC
MEAN_ELEMENT_THEORY = SGP/SGP4

EPOCH          = 2026-01-26T00:01:16.781952
MEAN_MOTION    = 14.16591039
ECCENTRICITY   = .00090207
INCLINATION    = 71.0000
RA_OF_ASC_NODE = 230.4224
ARG_OF_PERICENTER = 310.0789
MEAN_ANOMALY   = 200.3133

EPHEMERIS_TYPE = 0
CLASSIFICATION_TYPE = U
NORAD_CAT_ID   = 16182
ELEMENT_SET_NO = 999
REV_AT_EPOCH   = 8118
BSTAR          = .54657653E-4
MEAN_MOTION_DOT = .61E-6
MEAN_MOTION_DDOT = 0

CCSDS_OMM_VERS = 2.0
CREATION_DATE  = 
ORIGINATOR     = 

OBJECT_NAME    = SL-14 R/B
OBJECT_ID      = 1986-006B
CENTER_NAME    = EARTH
REF_FRAME      = TEME
TIME_SYSTEM    = UTC
MEAN_ELEMENT_THEORY = SGP/SGP4

EPOCH          = 2026-01-26T04:31:18.282720
MEAN_MOTION    = 14.86747759
ECCENTRICITY   = .00779813
INCLINATION    = 82.5285
RA_OF_ASC_NODE = 299.7351
ARG_OF_PERICENTER = 54.2625
MEAN_ANOMALY   = 306.5812

EPHEMERIS_TYPE = 0
CLASSIFICATION_TYPE = U
NORAD_CAT_ID   = 16496
ELEMENT_SET_NO = 999
REV_AT_EPOCH   = 14289
BSTAR          = .13189333E-3
MEAN_MOTION_DOT = .1268E-4
MEAN_MOTION_DDOT = 0

CCSDS_OMM_VERS = 2.0
CREATION_DATE  = 
ORIGINATOR     = 

OBJECT_NAME    = COSMOS 1743
OBJECT_ID      = 1986-034A
CENTER_NAME    = EARTH
REF_FRAME      = TEME
TIME_SYSTEM    = UTC
MEAN_ELEMENT_THEORY = SGP/SGP4

EPOCH          = 2026-01-26T06:55:24.074976
MEAN_MOTION    = 15.55379168
ECCENTRICITY   = .00054261
INCLINATION    = 82.5349
RA_OF_ASC_NODE = 118.2173
ARG_OF_PERICENTER = 91.1487
MEAN_ANOMALY   = 269.0389

EPHEMERIS_TYPE = 0
CLASSIFICATION_TYPE = U
NORAD_CAT_ID   = 16719
ELEMENT_SET_NO = 999
REV_AT_EPOCH   = 17365
BSTAR          = .63839692E-3
MEAN_MOTION_DOT = .43605E-3
MEAN_MOTION_DDOT = 0

