SL-3 R/B                
1 13403U 82079B   26026.26549418  .00007609  00000+0  30873-3 0  9997
2 13403  81.1448 243.1539 0024529 311.6464  48.2667 15.24192404371234
SL-14 R/B               
1 13553U 82092B   26025.92328281  .00001023  00000+0  11209-3 0  9999
2 13553  82.5684 181.3880 0021862  83.6561  84.2639 14.86612743322572
SL-3 R/B                
1 13819U 83010B   26026.16116683  .00019498  00000+0  41233-3 0  9998
2 13819  81.1023  54.3352 0016822 190.0261 170.0650 15.44861362351377
SL-3 R/B                
1 14208U 83075B   26026.26299971  .00015925  00000+0  43443-3 0  9991
2 14208  97.6128  29.2810 0023120  26.4783 333.7637 15.37261686323634
COSMOS 1536             
1 14699U 84013A   26026.29125788  .00010011  00000+0  42032-3 0  9999
2 14699  82.5467 149.9627 0015682  73.9302 286.3660 15.23210384266168
SL-14 R/B               
1 14820U 84027B   26026.20260418  .00000770  00000+0  85261-4 0  9994
2 14820  82.5422 284.8657 0019407 112.1434 248.1845 14.85931852241327
SL-8 R/B                
1 15483U 85006B   26026.29306759  .00000522  00000+0  18196-3 0  9993
2 15483  74.0474 339.1579 0019757 264.4561 205.2635 14.37758165147937
SL-12 R/B(2)            
1 15772U 85042D   26025.70293772  .00000190  00000+0  10682-3 0  9992
2 15772  71.1072 178.5432 0035812 196.0833 174.9104 14.21967794108286
SL-14 R/B               
1 15945U 85069B   26026.20026210  .00000747  00000+0  81812-4 0  9992
2 15945  82.5244  64.8983 0018137 337.7579  22.2849 14.86381129166520
SL-16 R/B               
1 16182U 85097B   26026.00088868  .00000061  00000+0  54658-4 0  9999
2 16182  71.0000 230.4224 0009020 310.0789 200.3133 14.16591039 81183
SL-14 R/B               
1 16496U 86006B   26026.18840605  .00001268  00000+0  13189-3 0  9995
2 16496  82.5285 299.7351 0077981  54.2625 306.5812 14.86747759142897
COSMOS 1743             
1 16719U 86034A   26026.28847309  .00043605  00000+0  63840-3 0  9993
2 16719  82.5349 118.2173 0005426  91.1487 269.0389 15.55379168173656
